STARLINK-2122           
1 47400U 21005BD  26068.16379774  .00011306  00000+0  39300-3 0  9997
2 47400  53.1610  15.9494 0001349  87.1367 272.9788 15.30221389283644
HYPERFIELD-1A           
1 60562U 24149CY  26068.76488211  .00008569  00000+0  30052-3 0  9998
2 60562  97.3842 149.5066 0003865 313.7844  46.3076 15.29681349 86836
